{"type": "FeatureCollection", "features": [ {"type": "Feature", "properties": {"norad_id": 66969, "name": "STARLINK-36149", "group": "last-30-days", "lat": -34.39868472496567, "lon": -36.83849802063644, "alt_km": 363.5224537329559, "timestamp": "2025-12-24T09:46:29.717553+00:00", "meta": {"OBJECT_NAME": "STARLINK-36149", "OBJECT_ID": "2025-288L", "EPOCH": "2025-12-24T04:00:01.998720", "MEAN_MOTION": 15.70158706, "ECCENTRICITY": 0.0001509, "INCLINATION": 42.9999, "RA_OF_ASC_NODE": 97.3224, "ARG_OF_PERICENTER": 271.1101, "MEAN_ANOMALY": 43.6015, "EPHEMERIS_TYPE": 0, "CLASSIFICATION_TYPE": "U", "NORAD_CAT_ID": 66969, "ELEMENT_SET_NO": 999, "REV_AT_EPOCH": 366, "BSTAR": -0.017377, "MEAN_MOTION_DOT": -0.01920883, "MEAN_MOTION_DDOT": 0}, "tle": {"line1": "1 66969U 25288L   25358.16668980 -.01920883  00000+0 -17377-1 0  9996", "line2": "2 66969  42.9999  97.3224 0001509 271.1101  43.6015 15.70158706  3669"}}, "geometry": {"type": "Point", "coordinates": [-36.83849802063644, -34.39868472496567]}}, {"type": "Feature", "properties": {"norad_id": 66970, "name": "STARLINK-35703", "group": "last-30-days", "lat": -37.64517740003927, "lon": -28.274549847535955, "alt_km": 363.5883821330026, "timestamp": "2025-12-24T09:46:29.717563+00:00", "meta": {"OBJECT_NAME": "STARLINK-35703", "OBJECT_ID": "2025-288M", "EPOCH": "2025-12-24T04:00:01.998720", "MEAN_MOTION": 15.701533, "ECCENTRICITY": 0.0001511, "INCLINATION": 43.0003, "RA_OF_ASC_NODE": 97.3029, "ARG_OF_PERICENTER": 269.7135, "MEAN_ANOMALY": 52.668, "EPHEMERIS_TYPE": 0, "CLASSIFICATION_TYPE": "U", "NORAD_CAT_ID": 66970, "ELEMENT_SET_NO": 999, "REV_AT_EPOCH": 366, "BSTAR": -0.017292, "MEAN_MOTION_DOT": -0.01912142, "MEAN_MOTION_DDOT": 0}, "tle": {"line1": "1 66970U 25288M   25358.16668980 -.01912142  00000+0 -17292-1 0  9993", "line2": "2 66970  43.0003  97.3029 0001511 269.7135  52.6680 15.70153300  3668"}}, "geometry": {"type": "Point", "coordinates": [-28.274549847535955, -37.64517740003927]}}, {"type": "Feature", "properties": {"norad_id": 66971, "name": "STARLINK-35678", "group": "last-30-days", "lat": -30.60183695973328, "lon": -44.70785827561629, "alt_km": 363.3468599373027, "timestamp": "2025-12-24T09:46:29.717573+00:00", "meta": {"OBJECT_NAME": "STARLINK-35678", "OBJECT_ID": "2025-288N", "EPOCH": "2025-12-24T04:00:01.998720", "MEAN_MOTION": 15.70160112, "ECCENTRICITY": 0.0001586, "INCLINATION": 43.0001, "RA_OF_ASC_NODE": 97.3426, "ARG_OF_PERICENTER": 269.6959, "MEAN_ANOMALY": 37.3514, "EPHEMERIS_TYPE": 0, "CLASSIFICATION_TYPE": "U", "NORAD_CAT_ID": 66971, "ELEMENT_SET_NO": 999, "REV_AT_EPOCH": 366, "BSTAR": -0.017432, "MEAN_MOTION_DOT": -0.01926454, "MEAN_MOTION_DDOT": 0}, "tle": {"line1": "1 66971U 25288N   25358.16668980 -.01926454  00000+0 -17432-1 0  9991", "line2": "2 66971  43.0001  97.3426 0001586 269.6959  37.3514 15.70160112  3668"}}, "geometry": {"type": "Point", "coordinates": [-44.70785827561629, -30.60183695973328]}}, {"type": "Feature", "properties": {"norad_id": 66972, "name": "STARLINK-34846", "group": "last-30-days", "lat": -31.59401759749635, "lon": -42.80710457460539, "alt_km": 363.35208722809693, "timestamp": "2025-12-24T09:46:29.717583+00:00", "meta": {"OBJECT_NAME": "STARLINK-34846", "OBJECT_ID": "2025-288P", "EPOCH": "2025-12-24T04:00:01.998720", "MEAN_MOTION": 15.70159109, "ECCENTRICITY": 0.0001563, "INCLINATION": 43.0001, "RA_OF_ASC_NODE": 97.3377, "ARG_OF_PERICENTER": 267.9141, "MEAN_ANOMALY": 41.0422, "EPHEMERIS_TYPE": 0, "CLASSIFICATION_TYPE": "U", "NORAD_CAT_ID": 66972, "ELEMENT_SET_NO": 999, "REV_AT_EPOCH": 366, "BSTAR": -0.01733, "MEAN_MOTION_DOT": -0.01916402, "MEAN_MOTION_DDOT": 0}, "tle": {"line1": "1 66972U 25288P   25358.16668980 -.01916402  00000+0 -17330-1 0  9991", "line2": "2 66972  43.0001  97.3377 0001563 267.9141  41.0422 15.70159109  3667"}}, "geometry": {"type": "Point", "coordinates": [-42.80710457460539, -31.59401759749635]}}, {"type": "Feature", "properties": {"norad_id": 66973, "name": "STARLINK-35778", "group": "last-30-days", "lat": -32.56069603953017, "lon": -40.858688220125686, "alt_km": 363.3496023389471, "timestamp": "2025-12-24T09:46:29.717593+00:00", "meta": {"OBJECT_NAME": "STARLINK-35778", "OBJECT_ID": "2025-288Q", "EPOCH": "2025-12-24T04:00:01.998720", "MEAN_MOTION": 15.70157126, "ECCENTRICITY": 0.0001587, "INCLINATION": 43.0002, "RA_OF_ASC_NODE": 97.3332, "ARG_OF_PERICENTER": 266.1573, "MEAN_ANOMALY": 44.718, "EPHEMERIS_TYPE": 0, "CLASSIFICATION_TYPE": "U", "NORAD_CAT_ID": 66973, "ELEMENT_SET_NO": 999, "REV_AT_EPOCH": 366, "BSTAR": -0.017311, "MEAN_MOTION_DOT": -0.01914358, "MEAN_MOTION_DDOT": 0}, "tle": {"line1": "1 66973U 25288Q   25358.16668980 -.01914358  00000+0 -17311-1 0  9999", "line2": "2 66973  43.0002  97.3332 0001587 266.1573  44.7180 15.70157126  3664"}}, "geometry": {"type": "Point", "coordinates": [-40.858688220125686, -32.56069603953017]}}, {"type": "Feature", "properties": {"norad_id": 66974, "name": "STARLINK-35780", "group": "last-30-days", "lat": -33.497410589262195, "lon": -38.86641033300257, "alt_km": 363.55567672781217, "timestamp": "2025-12-24T09:46:29.717605+00:00", "meta": {"OBJECT_NAME": "STARLINK-35780", "OBJECT_ID": "2025-288R", "EPOCH": "2025-12-24T04:00:01.998720", "MEAN_MOTION": 15.70160144, "ECCENTRICITY": 0.0001406, "INCLINATION": 43.0001, "RA_OF_ASC_NODE": 97.3284, "ARG_OF_PERICENTER": 271.242, "MEAN_ANOMALY": 41.5539, "EPHEMERIS_TYPE": 0, "CLASSIFICATION_TYPE": "U", "NORAD_CAT_ID": 66974, "ELEMENT_SET_NO": 999, "REV_AT_EPOCH": 366, "BSTAR": -0.017415, "MEAN_MOTION_DOT": -0.01924685, "MEAN_MOTION_DDOT": 0}, "tle": {"line1": "1 66974U 25288R   25358.16668980 -.01924685  00000+0 -17415-1 0  9999", "line2": "2 66974  43.0001  97.3284 0001406 271.2420  41.5539 15.70160144  3665"}}, "geometry": {"type": "Point", "coordinates": [-38.86641033300257, -33.497410589262195]}}, {"type": "Feature", "properties": {"norad_id": 66975, "name": "STARLINK-35777", "group": "last-30-days", "lat": -35.26605155127105, "lon": -34.76566044157111, "alt_km": 363.51015679051943, "timestamp": "2025-12-24T09:46:29.717615+00:00", "meta": {"OBJECT_NAME": "STARLINK-35777", "OBJECT_ID": "2025-288S", "EPOCH": "2025-12-24T04:00:01.998720", "MEAN_MOTION": 15.70157521, "ECCENTRICITY": 0.0001513, "INCLINATION": 43.0003, "RA_OF_ASC_NODE": 97.3181, "ARG_OF_PERICENTER": 268.9527, "MEAN_ANOMALY": 47.6726, "EPHEMERIS_TYPE": 0, "CLASSIFICATION_TYPE": "U", "NORAD_CAT_ID": 66975, "ELEMENT_SET_NO": 999, "REV_AT_EPOCH": 366, "BSTAR": -0.017316, "MEAN_MOTION_DOT": -0.01914804, "MEAN_MOTION_DDOT": 0}, "tle": {"line1": "1 66975U 25288S   25358.16668980 -.01914804  00000+0 -17316-1 0  9992", "line2": "2 66975  43.0003  97.3181 0001513 268.9527  47.6726 15.70157521  3664"}}, "geometry": {"type": "Point", "coordinates": [-34.76566044157111, -35.26605155127105]}}, {"type": "Feature", "properties": {"norad_id": 66976, "name": "STARLINK-35772", "group": "last-30-days", "lat": -16.084590659984773, "lon": -65.12787859360522, "alt_km": 423.4371485169131, "timestamp": "2025-12-24T09:46:29.717627+00:00", "meta": {"OBJECT_NAME": "STARLINK-35772", "OBJECT_ID": "2025-288T", "EPOCH": "2025-12-24T04:00:01.998720", "MEAN_MOTION": 15.49280755, "ECCENTRICITY": 0.0001294, "INCLINATION": 43.0005, "RA_OF_ASC_NODE": 98.2511, "ARG_OF_PERICENTER": 262.4122, "MEAN_ANOMALY": 38.4779, "EPHEMERIS_TYPE": 0, "CLASSIFICATION_TYPE": "U", "NORAD_CAT_ID": 66976, "ELEMENT_SET_NO": 999, "REV_AT_EPOCH": 366, "BSTAR": -0.043683, "MEAN_MOTION_DOT": -0.02163871, "MEAN_MOTION_DDOT": 0}, "tle": {"line1": "1 66976U 25288T   25358.16668980 -.02163871  00000+0 -43683-1 0  9990", "line2": "2 66976  43.0005  98.2511 0001294 262.4122  38.4779 15.49280755  3668"}}, "geometry": {"type": "Point", "coordinates": [-65.12787859360522, -16.084590659984773]}}, {"type": "Feature", "properties": {"norad_id": 66977, "name": "STARLINK-35770", "group": "last-30-days", "lat": -36.1007336445016, "lon": -32.638252546355, "alt_km": 363.60168501283806, "timestamp": "2025-12-24T09:46:29.717639+00:00", "meta": {"OBJECT_NAME": "STARLINK-35770", "OBJECT_ID": "2025-288U", "EPOCH": "2025-12-24T04:00:01.998720", "MEAN_MOTION": 15.7016799, "ECCENTRICITY": 0.0001413, "INCLINATION": 43.0003, "RA_OF_ASC_NODE": 97.314, "ARG_OF_PERICENTER": 269.262, "MEAN_ANOMALY": 49.2833, "EPHEMERIS_TYPE": 0, "CLASSIFICATION_TYPE": "U", "NORAD_CAT_ID": 66977, "ELEMENT_SET_NO": 999, "REV_AT_EPOCH": 366, "BSTAR": -0.01753, "MEAN_MOTION_DOT": -0.0193647, "MEAN_MOTION_DDOT": 0}, "tle": {"line1": "1 66977U 25288U   25358.16668980 -.01936470  00000+0 -17530-1 0  9995", "line2": "2 66977  43.0003  97.3140 0001413 269.2620  49.2833 15.70167990  3666"}}, "geometry": {"type": "Point", "coordinates": [-32.638252546355, -36.1007336445016]}}, {"type": "Feature", "properties": {"norad_id": 66978, "name": "STARLINK-35787", "group": "last-30-days", "lat": -38.3569866483872, "lon": -26.019088120825764, "alt_km": 363.61894755353933, "timestamp": "2025-12-24T09:46:29.717650+00:00", "meta": {"OBJECT_NAME": "STARLINK-35787", "OBJECT_ID": "2025-288V", "EPOCH": "2025-12-24T04:00:01.998720", "MEAN_MOTION": 15.70164432, "ECCENTRICITY": 0.000155, "INCLINATION": 43.0002, "RA_OF_ASC_NODE": 97.2991, "ARG_OF_PERICENTER": 273.1999, "MEAN_ANOMALY": 51.0978, "EPHEMERIS_TYPE": 0, "CLASSIFICATION_TYPE": "U", "NORAD_CAT_ID": 66978, "ELEMENT_SET_NO": 999, "REV_AT_EPOCH": 366, "BSTAR": -0.017485, "MEAN_MOTION_DOT": -0.01931861, "MEAN_MOTION_DDOT": 0}, "tle": {"line1": "1 66978U 25288V   25358.16668980 -.01931861  00000+0 -17485-1 0  9994", "line2": "2 66978  43.0002  97.2991 0001550 273.1999  51.0978 15.70164432  3663"}}, "geometry": {"type": "Point", "coordinates": [-26.019088120825764, -38.3569866483872]}}]}